{
  "norad_id": 63985,
  "name": "SCS-01 D",
  "history": [
    {
      "epoch": "2026-03-27T11:24:17.358624",
      "apogee_km": 485.16052012170985,
      "perigee_km": 471.3407851690372,
      "latitude_deg": -60.40996348464284,
      "longitude_deg": 168.1192873599939,
      "semi_major_axis_km": 6856.387652645373,
      "eccentricity": 0.0010078,
      "inclination_deg": 97.3711,
      "raan_deg": 163.0048,
      "arg_perigee_deg": 195.5135,
      "mean_anomaly_deg": 164.5798,
      "mean_motion_rev_day": 15.29183896
    }
  ]
}