{"fetched_at":"2026-03-29T02:12:04Z","count":15717,"tles":[{"name":"SCS-01 D","line1":"1 63985U 25100D   26086.47520091  .00001998  00000+0  73142-4 0  9996","line2":"2 63985  97.3711 163.0048 0010078 195.5135 164.5798 15.29183896 48338","category":"Other"}]}